{
  "type": "FeatureCollection",
  "features": [
    {
      "type": "Feature",
      "properties": {
        "norad_id": 50032,
        "name": "COSMOS 1408 DEB",
        "group": "cosmos-1408-debris",
        "lat": 70.66914431801074,
        "lon": -154.36422436653876,
        "alt_km": 416.82030114254667,
        "timestamp": "2025-12-23T11:34:48.434777+00:00",
        "meta_object_name": "COSMOS 1408 DEB",
        "meta_object_id": "1982-092RU",
        "meta_epoch": "2025-12-23T03:20:47.627232",
        "meta_mean_motion": 15.45793581,
        "meta_eccentricity": 0.0016305,
        "meta_inclination": 82.563,
        "meta_ra_of_asc_node": 47.8493,
        "meta_arg_of_pericenter": 170.0487,
        "meta_mean_anomaly": 190.1088,
        "meta_ephemeris_type": 0,
        "meta_classification_type": "U",
        "meta_norad_cat_id": 50032,
        "meta_element_set_no": 999,
        "meta_rev_at_epoch": 22764,
        "meta_bstar": 0.00011107,
        "meta_mean_motion_dot": 5.445e-05,
        "meta_mean_motion_ddot": 0,
        "tle_line1": "1 50032U 82092RU  25357.13944013  .00005445  00000+0  11107-3 0  9998",
        "tle_line2": "2 50032  82.5630  47.8493 0016305 170.0487 190.1088 15.45793581227649"
      },
      "geometry": {
        "type": "Point",
        "coordinates": [
          -154.36422436653876,
          70.66914431801074
        ]
      }
    },
    {
      "type": "Feature",
      "properties": {
        "norad_id": 50058,
        "name": "COSMOS 1408 DEB",
        "group": "cosmos-1408-debris",
        "lat": -48.898533586399175,
        "lon": 49.53939894552,
        "alt_km": 384.96927445449273,
        "timestamp": "2025-12-23T11:34:48.434797+00:00",
        "meta_object_name": "COSMOS 1408 DEB",
        "meta_object_id": "1982-092SW",
        "meta_epoch": "2025-12-23T04:07:00.859008",
        "meta_mean_motion": 15.64713,
        "meta_eccentricity": 0.0015984,
        "meta_inclination": 82.6118,
        "meta_ra_of_asc_node": 58.4192,
        "meta_arg_of_pericenter": 63.7743,
        "meta_mean_anomaly": 296.5157,
        "meta_ephemeris_type": 0,
        "meta_classification_type": "U",
        "meta_norad_cat_id": 50058,
        "meta_element_set_no": 999,
        "meta_rev_at_epoch": 22967,
        "meta_bstar": 0.00034025,
        "meta_mean_motion_dot": 0.00033308,
        "meta_mean_motion_ddot": 0,
        "tle_line1": "1 50058U 82092SW  25357.17153772  .00033308  00000+0  34025-3 0  9997",
        "tle_line2": "2 50058  82.6118  58.4192 0015984  63.7743 296.5157 15.64713000229670"
      },
      "geometry": {
        "type": "Point",
        "coordinates": [
          49.53939894552,
          -48.898533586399175
        ]
      }
    },
    {
      "type": "Feature",
      "properties": {
        "norad_id": 50404,
        "name": "COSMOS 1408 DEB",
        "group": "cosmos-1408-debris",
        "lat": -59.98801498843512,
        "lon": -169.70188947246146,
        "alt_km": 610.684235474595,
        "timestamp": "2025-12-23T11:34:48.434809+00:00",
        "meta_object_name": "COSMOS 1408 DEB",
        "meta_object_id": "1982-092ADS",
        "meta_epoch": "2025-12-23T00:45:48.911040",
        "meta_mean_motion": 15.15350794,
        "meta_eccentricity": 0.0167782,
        "meta_inclination": 82.2023,
        "meta_ra_of_asc_node": 204.4845,
        "meta_arg_of_pericenter": 163.5527,
        "meta_mean_anomaly": 197.1246,
        "meta_ephemeris_type": 0,
        "meta_classification_type": "U",
        "meta_norad_cat_id": 50404,
        "meta_element_set_no": 999,
        "meta_rev_at_epoch": 21349,
        "meta_bstar": 0.0032418,
        "meta_mean_motion_dot": 0.00088331,
        "meta_mean_motion_ddot": 0,
        "tle_line1": "1 50404U 82092ADS 25357.03181610  .00088331  00000+0  32418-2 0  9998",
        "tle_line2": "2 50404  82.2023 204.4845 0167782 163.5527 197.1246 15.15350794213498"
      },
      "geometry": {
        "type": "Point",
        "coordinates": [
          -169.70188947246146,
          -59.98801498843512
        ]
      }
    },
    {
      "type": "Feature",
      "properties": {
        "norad_id": 50621,
        "name": "COSMOS 1408 DEB",
        "group": "cosmos-1408-debris",
        "lat": 37.2682954428587,
        "lon": 68.69261768334223,
        "alt_km": 388.3556932291649,
        "timestamp": "2025-12-23T11:34:48.434819+00:00",
        "meta_object_name": "COSMOS 1408 DEB",
        "meta_object_id": "1982-092ALR",
        "meta_epoch": "2025-12-22T15:22:09.683040",
        "meta_mean_motion": 15.5714769,
        "meta_eccentricity": 0.0029076,
        "meta_inclination": 82.5692,
        "meta_ra_of_asc_node": 63.8704,
        "meta_arg_of_pericenter": 116.7559,
        "meta_mean_anomaly": 243.6676,
        "meta_ephemeris_type": 0,
        "meta_classification_type": "U",
        "meta_norad_cat_id": 50621,
        "meta_element_set_no": 999,
        "meta_rev_at_epoch": 22404,
        "meta_bstar": 0.00038327,
        "meta_mean_motion_dot": 0.00028443,
        "meta_mean_motion_ddot": 0,
        "tle_line1": "1 50621U 82092ALR 25356.64038985  .00028443  00000+0  38327-3 0  9995",
        "tle_line2": "2 50621  82.5692  63.8704 0029076 116.7559 243.6676 15.57147690224045"
      },
      "geometry": {
        "type": "Point",
        "coordinates": [
          68.69261768334223,
          37.2682954428587
        ]
      }
    }
  ]
}